[{"OBJECT_NAME":"STARLINK-5529","OBJECT_ID":"2023-064AZ","EPOCH":"2026-03-09T11:37:28.058592","MEAN_MOTION":14.98326175,"ECCENTRICITY":0.00033241,"INCLINATION":69.9996,"RA_OF_ASC_NODE":104.9006,"ARG_OF_PERICENTER":264.4846,"MEAN_ANOMALY":95.5934,"EPHEMERIS_TYPE":0,"CLASSIFICATION_TYPE":"U","NORAD_CAT_ID":56495,"ELEMENT_SET_NO":999,"REV_AT_EPOCH":15620,"BSTAR":2.0532138e-5,"MEAN_MOTION_DOT":1.52e-6,"MEAN_MOTION_DDOT":0},{"OBJECT_NAME":"SITRO-AIS 16","OBJECT_ID":"2024-199C","EPOCH":"2026-03-09T22:02:52.039104","MEAN_MOTION":14.97049887,"ECCENTRICITY":0.00080733,"INCLINATION":97.3322,"RA_OF_ASC_NODE":274.4213,"ARG_OF_PERICENTER":52.0818,"MEAN_ANOMALY":308.1134,"EPHEMERIS_TYPE":0,"CLASSIFICATION_TYPE":"U","NORAD_CAT_ID":61737,"ELEMENT_SET_NO":999,"REV_AT_EPOCH":11696,"BSTAR":0.00041232113,"MEAN_MOTION_DOT":4.701e-5,"MEAN_MOTION_DDOT":0}]
